{"type": "FeatureCollection", "features": [ {"type": "Feature", "properties": {"norad_id": 31243, "name": "FENGYUN 1C DEB", "group": "fengyun-1c-debris", "lat": -7.62959108646023, "lon": -153.69770724322748, "alt_km": 828.057200957337, "timestamp": "2025-12-13T05:42:57.840886+00:00", "meta": {"OBJECT_NAME": "FENGYUN 1C DEB", "OBJECT_ID": "1999-025BLZ", "EPOCH": "2025-12-11T01:38:01.863168", "MEAN_MOTION": 14.07160791, "ECCENTRICITY": 0.00661137, "INCLINATION": 98.7502, "RA_OF_ASC_NODE": 25.3839, "ARG_OF_PERICENTER": 172.9783, "MEAN_ANOMALY": 187.2328, "EPHEMERIS_TYPE": 0, "CLASSIFICATION_TYPE": "U", "NORAD_CAT_ID": 31243, "ELEMENT_SET_NO": 999, "REV_AT_EPOCH": 69284, "BSTAR": 0.0010133892, "MEAN_MOTION_DOT": 1.689e-05, "MEAN_MOTION_DDOT": 0}, "tle": {"line1": "1 31243U 99025BLZ 25345.06807712  .00001689  00000+0  10134-2 0  9992", "line2": "2 31243  98.7502  25.3839 0066113 172.9783 187.2328 14.07160791692846"}}, "geometry": {"type": "Point", "coordinates": [-153.69770724322748, -7.62959108646023]}}, {"type": "Feature", "properties": {"norad_id": 31244, "name": "FENGYUN 1C DEB", "group": "fengyun-1c-debris", "lat": -29.517783139494615, "lon": -134.31261473922737, "alt_km": 818.005302628434, "timestamp": "2025-12-13T05:42:57.840896+00:00", "meta": {"OBJECT_NAME": "FENGYUN 1C DEB", "OBJECT_ID": "1999-025BMA", "EPOCH": "2025-12-07T22:21:36.542016", "MEAN_MOTION": 14.06237413, "ECCENTRICITY": 0.01023168, "INCLINATION": 99.037, "RA_OF_ASC_NODE": 45.5611, "ARG_OF_PERICENTER": 188.335, "MEAN_ANOMALY": 171.6122, "EPHEMERIS_TYPE": 0, "CLASSIFICATION_TYPE": "U", "NORAD_CAT_ID": 31244, "ELEMENT_SET_NO": 999, "REV_AT_EPOCH": 57572, "BSTAR": 0.00047777338, "MEAN_MOTION_DOT": 7.8e-06, "MEAN_MOTION_DDOT": 0}, "tle": {"line1": "1 31244U 99025BMA 25341.93167294  .00000780  00000+0  47777-3 0  9994", "line2": "2 31244  99.0370  45.5611 0102316 188.3350 171.6122 14.06237413575724"}}, "geometry": {"type": "Point", "coordinates": [-134.31261473922737, -29.517783139494615]}}, {"type": "Feature", "properties": {"norad_id": 31247, "name": "FENGYUN 1C DEB", "group": "fengyun-1c-debris", "lat": 39.89517937200438, "lon": 63.36427539715561, "alt_km": 863.9497239506591, "timestamp": "2025-12-13T05:42:57.840907+00:00", "meta": {"OBJECT_NAME": "FENGYUN 1C DEB", "OBJECT_ID": "1999-025BMD", "EPOCH": "2025-12-12T04:08:39.642720", "MEAN_MOTION": 14.05115722, "ECCENTRICITY": 0.00589497, "INCLINATION": 99.3655, "RA_OF_ASC_NODE": 234.3346, "ARG_OF_PERICENTER": 64.1134, "MEAN_ANOMALY": 87.8376, "EPHEMERIS_TYPE": 0, "CLASSIFICATION_TYPE": "U", "NORAD_CAT_ID": 31247, "ELEMENT_SET_NO": 999, "REV_AT_EPOCH": 95513, "BSTAR": 0.0015005082, "MEAN_MOTION_DOT": 2.412e-05, "MEAN_MOTION_DDOT": 0}, "tle": {"line1": "1 31247U 99025BMD 25346.17268105  .00002412  00000+0  15005-2 0  9993", "line2": "2 31247  99.3655 234.3346 0058949  64.1134  87.8376 14.05115722955135"}}, "geometry": {"type": "Point", "coordinates": [63.36427539715561, 39.89517937200438]}}, {"type": "Feature", "properties": {"norad_id": 31248, "name": "FENGYUN 1C DEB", "group": "fengyun-1c-debris", "lat": -29.219370903446347, "lon": 49.935132217452114, "alt_km": 849.5497961985466, "timestamp": "2025-12-13T05:42:57.840922+00:00", "meta": {"OBJECT_NAME": "FENGYUN 1C DEB", "OBJECT_ID": "1999-025BME", "EPOCH": "2025-12-12T02:24:32.324832", "MEAN_MOTION": 13.92781644, "ECCENTRICITY": 0.01096929, "INCLINATION": 99.2646, "RA_OF_ASC_NODE": 43.5589, "ARG_OF_PERICENTER": 313.1279, "MEAN_ANOMALY": 75.0528, "EPHEMERIS_TYPE": 0, "CLASSIFICATION_TYPE": "U", "NORAD_CAT_ID": 31248, "ELEMENT_SET_NO": 999, "REV_AT_EPOCH": 94815, "BSTAR": 0.0008514449, "MEAN_MOTION_DOT": 1.112e-05, "MEAN_MOTION_DDOT": 0}, "tle": {"line1": "1 31248U 99025BME 25346.10037413  .00001112  00000+0  85144-3 0  9991", "line2": "2 31248  99.2646  43.5589 0109692 313.1279  75.0528 13.92781644948152"}}, "geometry": {"type": "Point", "coordinates": [49.935132217452114, -29.219370903446347]}}, {"type": "Feature", "properties": {"norad_id": 31250, "name": "FENGYUN 1C DEB", "group": "fengyun-1c-debris", "lat": 2.331639023432791, "lon": 17.574203945319127, "alt_km": 931.8597988273787, "timestamp": "2025-12-13T05:42:57.840932+00:00", "meta": {"OBJECT_NAME": "FENGYUN 1C DEB", "OBJECT_ID": "1999-025BMG", "EPOCH": "2025-12-12T01:28:34.912416", "MEAN_MOTION": 14.03080505, "ECCENTRICITY": 0.0133497, "INCLINATION": 98.3876, "RA_OF_ASC_NODE": 196.145, "ARG_OF_PERICENTER": 299.9462, "MEAN_ANOMALY": 58.8506, "EPHEMERIS_TYPE": 0, "CLASSIFICATION_TYPE": "U", "NORAD_CAT_ID": 31250, "ELEMENT_SET_NO": 999, "REV_AT_EPOCH": 95508, "BSTAR": 0.0017866273, "MEAN_MOTION_DOT": 2.966e-05, "MEAN_MOTION_DDOT": 0}, "tle": {"line1": "1 31250U 99025BMG 25346.06151519  .00002966  00000+0  17866-2 0  9996", "line2": "2 31250  98.3876 196.1450 0133497 299.9462  58.8506 14.03080505955083"}}, "geometry": {"type": "Point", "coordinates": [17.574203945319127, 2.331639023432791]}}, {"type": "Feature", "properties": {"norad_id": 31252, "name": "FENGYUN 1C DEB", "group": "fengyun-1c-debris", "lat": -54.83231688334422, "lon": 18.05257227815264, "alt_km": 868.561551973402, "timestamp": "2025-12-13T05:42:57.840943+00:00", "meta": {"OBJECT_NAME": "FENGYUN 1C DEB", "OBJECT_ID": "1999-025BMJ", "EPOCH": "2025-12-12T06:38:23.411904", "MEAN_MOTION": 14.40172, "ECCENTRICITY": 0.02138263, "INCLINATION": 98.3173, "RA_OF_ASC_NODE": 5.1345, "ARG_OF_PERICENTER": 173.5973, "MEAN_ANOMALY": 186.8029, "EPHEMERIS_TYPE": 0, "CLASSIFICATION_TYPE": "U", "NORAD_CAT_ID": 31252, "ELEMENT_SET_NO": 999, "REV_AT_EPOCH": 97200, "BSTAR": 0.0006037339, "MEAN_MOTION_DOT": 2.45e-05, "MEAN_MOTION_DDOT": 0}, "tle": {"line1": "1 31252U 99025BMJ 25346.27665986  .00002450  00000+0  60373-3 0  9999", "line2": "2 31252  98.3173   5.1345 0213826 173.5973 186.8029 14.40172000972002"}}, "geometry": {"type": "Point", "coordinates": [18.05257227815264, -54.83231688334422]}}, {"type": "Feature", "properties": {"norad_id": 31253, "name": "FENGYUN 1C DEB", "group": "fengyun-1c-debris", "lat": -12.480356363401176, "lon": 54.28762748628377, "alt_km": 923.6293636032451, "timestamp": "2025-12-13T05:42:57.840954+00:00", "meta": {"OBJECT_NAME": "FENGYUN 1C DEB", "OBJECT_ID": "1999-025BMK", "EPOCH": "2025-12-10T11:03:14.516352", "MEAN_MOTION": 14.03597801, "ECCENTRICITY": 0.02905912, "INCLINATION": 99.0776, "RA_OF_ASC_NODE": 49.4834, "ARG_OF_PERICENTER": 97.1731, "MEAN_ANOMALY": 266.2566, "EPHEMERIS_TYPE": 0, "CLASSIFICATION_TYPE": "U", "NORAD_CAT_ID": 31253, "ELEMENT_SET_NO": 999, "REV_AT_EPOCH": 68966, "BSTAR": 0.00043343724, "MEAN_MOTION_DOT": 9.45e-06, "MEAN_MOTION_DDOT": 0}, "tle": {"line1": "1 31253U 99025BMK 25344.46058468  .00000945  00000+0  43344-3 0  9996", "line2": "2 31253  99.0776  49.4834 0290591  97.1731 266.2566 14.03597801689666"}}, "geometry": {"type": "Point", "coordinates": [54.28762748628377, -12.480356363401176]}}, {"type": "Feature", "properties": {"norad_id": 31254, "name": "FENGYUN 1C DEB", "group": "fengyun-1c-debris", "lat": 74.69949262597568, "lon": -110.11415875399368, "alt_km": 776.5377327169126, "timestamp": "2025-12-13T05:42:57.840964+00:00", "meta": {"OBJECT_NAME": "FENGYUN 1C DEB", "OBJECT_ID": "1999-025BML", "EPOCH": "2025-12-10T08:57:59.154048", "MEAN_MOTION": 14.3634275, "ECCENTRICITY": 0.01512321, "INCLINATION": 98.4618, "RA_OF_ASC_NODE": 34.1052, "ARG_OF_PERICENTER": 209.1278, "MEAN_ANOMALY": 211.611, "EPHEMERIS_TYPE": 0, "CLASSIFICATION_TYPE": "U", "NORAD_CAT_ID": 31254, "ELEMENT_SET_NO": 999, "REV_AT_EPOCH": 97482, "BSTAR": 0.00082167547, "MEAN_MOTION_DOT": 2.692e-05, "MEAN_MOTION_DDOT": 0}, "tle": {"line1": "1 31254U 99025BML 25344.37360132  .00002692  00000+0  82168-3 0  9999", "line2": "2 31254  98.4618  34.1052 0151232 209.1278 211.6110 14.36342750974828"}}, "geometry": {"type": "Point", "coordinates": [-110.11415875399368, 74.69949262597568]}}, {"type": "Feature", "properties": {"norad_id": 31255, "name": "FENGYUN 1C DEB", "group": "fengyun-1c-debris", "lat": -23.883792776794387, "lon": 168.50429110222163, "alt_km": 670.8568261059645, "timestamp": "2025-12-13T05:42:57.840975+00:00", "meta": {"OBJECT_NAME": "FENGYUN 1C DEB", "OBJECT_ID": "1999-025BMM", "EPOCH": "2025-12-12T05:58:40.440288", "MEAN_MOTION": 14.09727333, "ECCENTRICITY": 0.02706634, "INCLINATION": 99.3082, "RA_OF_ASC_NODE": 163.316, "ARG_OF_PERICENTER": 344.8688, "MEAN_ANOMALY": 14.4499, "EPHEMERIS_TYPE": 0, "CLASSIFICATION_TYPE": "U", "NORAD_CAT_ID": 31255, "ELEMENT_SET_NO": 999, "REV_AT_EPOCH": 96794, "BSTAR": 0.00040372755, "MEAN_MOTION_DOT": 9.43e-06, "MEAN_MOTION_DDOT": 0}, "tle": {"line1": "1 31255U 99025BMM 25346.24907917  .00000943  00000+0  40373-3 0  9995", "line2": "2 31255  99.3082 163.3160 0270663 344.8688  14.4499 14.09727333967949"}}, "geometry": {"type": "Point", "coordinates": [168.50429110222163, -23.883792776794387]}}, {"type": "Feature", "properties": {"norad_id": 31256, "name": "FENGYUN 1C DEB", "group": "fengyun-1c-debris", "lat": -16.98679661818997, "lon": 12.203279619408498, "alt_km": 858.7600199114004, "timestamp": "2025-12-13T05:42:57.840988+00:00", "meta": {"OBJECT_NAME": "FENGYUN 1C DEB", "OBJECT_ID": "1999-025BMN", "EPOCH": "2025-12-10T10:04:20.682048", "MEAN_MOTION": 14.03237685, "ECCENTRICITY": 0.03084006, "INCLINATION": 98.6795, "RA_OF_ASC_NODE": 192.1841, "ARG_OF_PERICENTER": 120.5435, "MEAN_ANOMALY": 242.6554, "EPHEMERIS_TYPE": 0, "CLASSIFICATION_TYPE": "U", "NORAD_CAT_ID": 31256, "ELEMENT_SET_NO": 999, "REV_AT_EPOCH": 64949, "BSTAR": 0.0039409044, "MEAN_MOTION_DOT": 9.337e-05, "MEAN_MOTION_DDOT": 0}, "tle": {"line1": "1 31256U 99025BMN 25344.41968382  .00009337  00000+0  39409-2 0  9999", "line2": "2 31256  98.6795 192.1841 0308400 120.5435 242.6554 14.03237685649493"}}, "geometry": {"type": "Point", "coordinates": [12.203279619408498, -16.98679661818997]}}]}